ONEWEB-0346             
1 49212U 21083AC  24061.47027326  .00000068  00000+0  13947-3 0  9996
2 49212  87.9224 142.2082 0002212 115.4579 244.6783 13.18686092119571
ONEWEB-0348             
1 49213U 21083AD  24061.54706012  .00000093  00000+0  19598-3 0  9997
2 49213  87.9126  81.1527 0001861 114.6908 245.4419 13.20771499126240
ONEWEB-0350             
1 49214U 21083AE  24061.54719414  .00000278  00000+0  72591-3 0  9995
2 49214  87.8968 126.9682 0001760 114.0808 246.0506 13.13472312120977
ONEWEB-0351             
1 49215U 21083AF  24061.54074721  .00000093  00000+0  19787-3 0  9994
2 49215  87.9122  81.1579 0001754  79.8715 280.2616 13.20772032126200
ONEWEB-0352             
1 49216U 21083AG  24061.60432614 -.00000407  00000+0 -11506-2 0  9992
2 49216  87.8971 126.9847 0001851  94.8889 265.2452 13.13470061121075
ONEWEB-0354             
1 49217U 21083AH  24061.56599930  .00000001  00000+0 -30086-4 0  9998
2 49217  87.9126  81.1340 0001567  96.2587 263.8725 13.20771424126240
ONEWEB-0355             
1 49218U 21083AJ  24061.55831602  .00000250  00000+0  65025-3 0  9998
2 49218  87.8971 126.9934 0001787 100.7145 259.4186 13.13467919120946
ONEWEB-0357             
1 49219U 21083AK  24061.56284154  .00000003  00000+0 -25471-4 0  9993
2 49219  87.9124  81.1565 0001851  94.9586 265.1758 13.20771093126242
